HAWK-11A                
1 62382U 24247F   26068.51231358  .00009457  00000+0  34106-3 0  9991
2 62382  44.9941 114.3328 0005466 327.3713  32.6832 15.28849427 67741
STARLINK-35511          
1 66344U 25253AB  26068.45995577  .00032209  00000+0  11745-2 0  9998
2 66344  43.0017 213.4255 0001451 243.6652 116.4050 15.27591717 20218
